GLOBALSTAR M023         
1 25621U 99004A   25175.34745980 -.00000142  00000+0 -21391-3 0  9995
2 25621  52.0128  31.6376 0010120 136.9584  33.8367 12.62507743216637
GLOBALSTAR M036         
1 25623U 99004C   25175.10889348  .00000069  00000+0  22179-2 0  9998
2 25623  51.9943 222.0791 0011016  67.0626 316.1858 11.86608129179809
GLOBALSTAR M038         
1 25624U 99004D   25174.65468003 -.00000086  00000+0  76331-4 0  9990
2 25624  51.9988  52.9459 0002635  65.3989 312.0062 12.32528459203179
GLOBALSTAR M022         
1 25649U 99012A   25175.54421203 -.00000065  00000+0  26616-3 0  9993
2 25649  52.0044 270.9033 0002979 181.6074 192.1319 12.02500680177264
GLOBALSTAR M046         
1 25651U 99012C   25175.11290766  .00000020  00000+0  11932-2 0  9991
2 25651  52.0033 221.9566 0002155 260.2929 123.9368 12.09411096184501
